start=new Date('2023-06-15T00:00:00.000Z').valueOf();
sats=[{"TLE_LINE1":"1 51113U 22005K   23165.78773005  .00000554  00000-0  52869-4 0  9992","PERIOD":"95.438","DECAY_DATE":null,"CENTER_NAME":"EARTH","OBJECT_ID":"2022-005K","GP_ID":"233947673","CLASSIFICATION_TYPE":"U","ELEMENT_SET_NO":"999","LAUNCH_DATE":"2022-01-19","INCLINATION":"53.2167","OBJECT_TYPE":"PAYLOAD","REF_FRAME":"TEME","EPHEMERIS_TYPE":"0","RA_OF_ASC_NODE":"93.3646","SITE":"AFETR","OBJECT_NAME":"STARLINK-3372","TIME_SYSTEM":"UTC","PERIAPSIS":"538.848","EPOCH":"2023-06-14T18:54:19.876320","ARG_OF_PERICENTER":"78.9296","COUNTRY_CODE":"US","APOAPSIS":"540.664","FILE":"3933215","MEAN_MOTION":"15.08836504","RCS_SIZE":"LARGE","NORAD_CAT_ID":"51113","REV_AT_EPOCH":"7807","SEMIMAJOR_AXIS":"6917.891","MEAN_MOTION_DOT":"0.00000554","MEAN_ELEMENT_THEORY":"SGP4","TLE_LINE2":"2 51113  53.2167  93.3646 0001312  78.9296 281.1843 15.08836504 78075","ECCENTRICITY":"0.00013120","BSTAR":"0.00005286900000","MEAN_ANOMALY":"281.1843","MEAN_MOTION_DDOT":"0.0000000000000"},{"NORAD_CAT_ID":"51114","RCS_SIZE":"LARGE","REV_AT_EPOCH":"7808","COUNTRY_CODE":"US","FILE":"3933215","APOAPSIS":"540.609","MEAN_MOTION":"15.08836433","EPOCH":"2023-06-14T19:20:49.299360","ARG_OF_PERICENTER":"87.4700","MEAN_ANOMALY":"272.6433","MEAN_MOTION_DDOT":"0.0000000000000","ECCENTRICITY":"0.00012330","BSTAR":"0.00008924400000","SEMIMAJOR_AXIS":"6917.891","MEAN_MOTION_DOT":"0.00001133","MEAN_ELEMENT_THEORY":"SGP4","TLE_LINE2":"2 51114  53.2168  93.2810 0001233  87.4700 272.6433 15.08836433 78088","DECAY_DATE":null,"CENTER_NAME":"EARTH","GP_ID":"233946422","OBJECT_ID":"2022-005L","TLE_LINE1":"1 51114U 22005L   23165.80612615  .00001133  00000-0  89244-4 0  9996","PERIOD":"95.438","OBJECT_NAME":"STARLINK-3375","TIME_SYSTEM":"UTC","PERIAPSIS":"538.903","RA_OF_ASC_NODE":"93.2810","SITE":"AFETR","REF_FRAME":"TEME","EPHEMERIS_TYPE":"0","ELEMENT_SET_NO":"999","CLASSIFICATION_TYPE":"U","INCLINATION":"53.2168","LAUNCH_DATE":"2022-01-19","OBJECT_TYPE":"PAYLOAD"},{"RA_OF_ASC_NODE":"93.3974","SITE":"AFETR","PERIAPSIS":"538.861","OBJECT_NAME":"STARLINK-3397","TIME_SYSTEM":"UTC","LAUNCH_DATE":"2022-01-19","OBJECT_TYPE":"PAYLOAD","INCLINATION":"53.2165","CLASSIFICATION_TYPE":"U","ELEMENT_SET_NO":"999","EPHEMERIS_TYPE":"0","REF_FRAME":"TEME","PERIOD":"95.438","TLE_LINE1":"1 51115U 22005M   23165.78037273  .00000215  00000-0  31599-4 0  9995","CENTER_NAME":"EARTH","GP_ID":"233947173","OBJECT_ID":"2022-005M","DECAY_DATE":null,"MEAN_MOTION_DDOT":"0.0000000000000","MEAN_ANOMALY":"267.1795","MEAN_ELEMENT_THEORY":"SGP4","TLE_LINE2":"2 51115  53.2165  93.3974 0001313  92.9348 267.1795 15.08832022 78075","SEMIMAJOR_AXIS":"6917.905","MEAN_MOTION_DOT":"0.00000215","ECCENTRICITY":"0.00013130","BSTAR":"0.00003159900000","REV_AT_EPOCH":"7807","RCS_SIZE":"LARGE","NORAD_CAT_ID":"51115","EPOCH":"2023-06-14T18:43:44.203872","ARG_OF_PERICENTER":"92.9348","APOAPSIS":"540.678","FILE":"3933215","MEAN_MOTION":"15.08832022","COUNTRY_CODE":"US"},{"TLE_LINE1":"1 51116U 22005N   23165.79236454  .00000508  00000-0  50036-4 0  9991","PERIOD":"95.438","DECAY_DATE":null,"GP_ID":"233947424","OBJECT_ID":"2022-005N","CENTER_NAME":"EARTH","CLASSIFICATION_TYPE":"U","ELEMENT_SET_NO":"999","OBJECT_TYPE":"PAYLOAD","LAUNCH_DATE":"2022-01-19","INCLINATION":"53.2168","REF_FRAME":"TEME","EPHEMERIS_TYPE":"0","SITE":"AFETR","RA_OF_ASC_NODE":"93.3146","TIME_SYSTEM":"UTC","OBJECT_NAME":"STARLINK-3243","PERIAPSIS":"538.853","ARG_OF_PERICENTER":"85.0859","EPOCH":"2023-06-14T19:01:00.296256","COUNTRY_CODE":"US","MEAN_MOTION":"15.08835532","FILE":"3933215","APOAPSIS":"540.665","NORAD_CAT_ID":"51116","RCS_SIZE":"LARGE","REV_AT_EPOCH":"7807","MEAN_MOTION_DOT":"0.00000508","SEMIMAJOR_AXIS":"6917.894","TLE_LINE2":"2 51116  53.2168  93.3146 0001310  85.0859 275.0282 15.08835532 78075","MEAN_ELEMENT_THEORY":"SGP4","BSTAR":"0.00005003600000","ECCENTRICITY":"0.00013100","MEAN_ANOMALY":"275.0282","MEAN_MOTION_DDOT":"0.0000000000000"},{"GP_ID":"233948174","OBJECT_ID":"2022-005P","CENTER_NAME":"EARTH","DECAY_DATE":null,"PERIOD":"95.438","TLE_LINE1":"1 51117U 22005P   23165.82916318  .00001079  00000-0  85903-4 0  9995","PERIAPSIS":"538.708","TIME_SYSTEM":"UTC","OBJECT_NAME":"STARLINK-3391","SITE":"AFETR","RA_OF_ASC_NODE":"93.1516","EPHEMERIS_TYPE":"0","REF_FRAME":"TEME","OBJECT_TYPE":"PAYLOAD","LAUNCH_DATE":"2022-01-19","INCLINATION":"53.2191","ELEMENT_SET_NO":"999","CLASSIFICATION_TYPE":"U","REV_AT_EPOCH":"7808","NORAD_CAT_ID":"51117","RCS_SIZE":"LARGE","MEAN_MOTION":"15.08827637","APOAPSIS":"540.858","FILE":"3933215","COUNTRY_CODE":"US","ARG_OF_PERICENTER":"115.3982","EPOCH":"2023-06-14T19:53:59.698752","MEAN_MOTION_DDOT":"0.0000000000000","MEAN_ANOMALY":"244.7171","BSTAR":"0.00008590300000","ECCENTRICITY":"0.00015540","TLE_LINE2":"2 51117  53.2191  93.1516 0001554 115.3982 244.7171 15.08827637 78083","MEAN_ELEMENT_THEORY":"SGP4","MEAN_MOTION_DOT":"0.00001079","SEMIMAJOR_AXIS":"6917.918"},{"SEMIMAJOR_AXIS":"6917.865","MEAN_MOTION_DOT":"0.00000491","MEAN_ELEMENT_THEORY":"SGP4","TLE_LINE2":"2 51118  53.2174  96.0592 0001146  93.1196 266.9928 15.08845140 77981","ECCENTRICITY":"0.00011460","BSTAR":"0.00004890600000","MEAN_ANOMALY":"266.9928","MEAN_MOTION_DDOT":"0.0000000000000","EPOCH":"2023-06-14T04:30:33.001344","ARG_OF_PERICENTER":"93.1196","COUNTRY_CODE":"US","APOAPSIS":"540.522","FILE":"3932965","MEAN_MOTION":"15.08845140","NORAD_CAT_ID":"51118","RCS_SIZE":"LARGE","REV_AT_EPOCH":"7798","ELEMENT_SET_NO":"999","CLASSIFICATION_TYPE":"U","OBJECT_TYPE":"PAYLOAD","LAUNCH_DATE":"2022-01-19","INCLINATION":"53.2174","REF_FRAME":"TEME","EPHEMERIS_TYPE":"0","RA_OF_ASC_NODE":"96.0592","SITE":"AFETR","OBJECT_NAME":"STARLINK-3394","TIME_SYSTEM":"UTC","PERIAPSIS":"538.937","TLE_LINE1":"1 51118U 22005Q   23165.18788196  .00000491  00000-0  48906-4 0  9995","PERIOD":"95.437","DECAY_DATE":null,"CENTER_NAME":"EARTH","GP_ID":"233915296","OBJECT_ID":"2022-005Q"},{"SEMIMAJOR_AXIS":"6917.904","MEAN_MOTION_DOT":"-0.00000255","MEAN_ELEMENT_THEORY":"SGP4","TLE_LINE2":"2 51119  53.2181  93.1803 0001187 108.8013 251.3108 15.08832330 78087","ECCENTRICITY":"0.00011870","BSTAR":"0.00000204290000","MEAN_ANOMALY":"251.3108","MEAN_MOTION_DDOT":"0.0000000000000","EPOCH":"2023-06-14T19:52:37.341408","ARG_OF_PERICENTER":"108.8013","COUNTRY_CODE":"US","FILE":"3933215","APOAPSIS":"540.590","MEAN_MOTION":"15.08832330","NORAD_CAT_ID":"51119","RCS_SIZE":"LARGE","REV_AT_EPOCH":"7808","ELEMENT_SET_NO":"999","CLASSIFICATION_TYPE":"U","LAUNCH_DATE":"2022-01-19","INCLINATION":"53.2181","OBJECT_TYPE":"PAYLOAD","REF_FRAME":"TEME","EPHEMERIS_TYPE":"0","RA_OF_ASC_NODE":"93.1803","SITE":"AFETR","OBJECT_NAME":"STARLINK-3390","TIME_SYSTEM":"UTC","PERIAPSIS":"538.948","TLE_LINE1":"1 51119U 22005R   23165.82820997 -.00000255  00000-0  20429-5 0  9993","PERIOD":"95.438","DECAY_DATE":null,"CENTER_NAME":"EARTH","OBJECT_ID":"2022-005R","GP_ID":"233946673"},{"DECAY_DATE":null,"GP_ID":"233914797","OBJECT_ID":"2022-005S","CENTER_NAME":"EARTH","TLE_LINE1":"1 51120U 22005S   23165.22468612 -.00000067  00000-0  13873-4 0  9996","PERIOD":"95.438","TIME_SYSTEM":"UTC","OBJECT_NAME":"STARLINK-3398","PERIAPSIS":"538.878","RA_OF_ASC_NODE":"95.8888","SITE":"AFETR","REF_FRAME":"TEME","EPHEMERIS_TYPE":"0","ELEMENT_SET_NO":"999","CLASSIFICATION_TYPE":"U","LAUNCH_DATE":"2022-01-19","OBJECT_TYPE":"PAYLOAD","INCLINATION":"53.2179","RCS_SIZE":"LARGE","NORAD_CAT_ID":"51120","REV_AT_EPOCH":"7799","COUNTRY_CODE":"US","MEAN_MOTION":"15.08838722","FILE":"3932965","APOAPSIS":"540.620","ARG_OF_PERICENTER":"87.7629","EPOCH":"2023-06-14T05:23:32.880768","MEAN_ANOMALY":"272.3507","MEAN_MOTION_DDOT":"0.0000000000000","BSTAR":"0.00001387300000","ECCENTRICITY":"0.00012590","MEAN_MOTION_DOT":"-0.00000067","SEMIMAJOR_AXIS":"6917.884","TLE_LINE2":"2 51120  53.2179  95.8888 0001259  87.7629 272.3507 15.08838722 77992","MEAN_ELEMENT_THEORY":"SGP4"},{"DECAY_DATE":null,"GP_ID":"233947674","OBJECT_ID":"2022-005T","CENTER_NAME":"EARTH","TLE_LINE1":"1 51121U 22005T   23165.83653196 -.00000429  00000-0 -88866-5 0  9995","PERIOD":"95.438","REF_FRAME":"TEME","EPHEMERIS_TYPE":"0","ELEMENT_SET_NO":"999","CLASSIFICATION_TYPE":"U","LAUNCH_DATE":"2022-01-19","INCLINATION":"53.2171","OBJECT_TYPE":"PAYLOAD","TIME_SYSTEM":"UTC","OBJECT_NAME":"STARLINK-3399","PERIAPSIS":"538.977","RA_OF_ASC_NODE":"93.1574","SITE":"AFETR","COUNTRY_CODE":"US","MEAN_MOTION":"15.08832990","APOAPSIS":"540.556","FILE":"3933215","ARG_OF_PERICENTER":"93.3054","EPOCH":"2023-06-14T20:04:36.361344","RCS_SIZE":"LARGE","NORAD_CAT_ID":"51121","REV_AT_EPOCH":"7808","BSTAR":"-0.00000888660000","ECCENTRICITY":"0.00011410","MEAN_MOTION_DOT":"-0.00000429","SEMIMAJOR_AXIS":"6917.902","TLE_LINE2":"2 51121  53.2171  93.1574 0001141  93.3054 266.8069 15.08832990 78086","MEAN_ELEMENT_THEORY":"SGP4","MEAN_ANOMALY":"266.8069","MEAN_MOTION_DDOT":"0.0000000000000"},{"CLASSIFICATION_TYPE":"U","ELEMENT_SET_NO":"999","LAUNCH_DATE":"2022-01-19","OBJECT_TYPE":"PAYLOAD","INCLINATION":"53.2181","REF_FRAME":"TEME","EPHEMERIS_TYPE":"0","SITE":"AFETR","RA_OF_ASC_NODE":"93.2023","TIME_SYSTEM":"UTC","OBJECT_NAME":"STARLINK-3373","PERIAPSIS":"538.949","TLE_LINE1":"1 51122U 22005U   23165.82548809  .00000778  00000-0  66981-4 0  9997","PERIOD":"95.438","DECAY_DATE":null,"GP_ID":"233946423","OBJECT_ID":"2022-005U","CENTER_NAME":"EARTH","MEAN_MOTION_DOT":"0.00000778","SEMIMAJOR_AXIS":"6917.909","TLE_LINE2":"2 51122  53.2181  93.2023 0001193  85.4069 274.7060 15.08830529 78088","MEAN_ELEMENT_THEORY":"SGP4","BSTAR":"0.00006698100000","ECCENTRICITY":"0.00011930","MEAN_ANOMALY":"274.7060","MEAN_MOTION_DDOT":"0.0000000000000","ARG_OF_PERICENTER":"85.4069","EPOCH":"2023-06-14T19:48:42.170976","COUNTRY_CODE":"US","MEAN_MOTION":"15.08830529","FILE":"3933215","APOAPSIS":"540.600","NORAD_CAT_ID":"51122","RCS_SIZE":"LARGE","REV_AT_EPOCH":"7808"}];
